OBJECT_NAME,OBJECT_ID,EPOCH,MEAN_MOTION,ECCENTRICITY,INCLINATION,RA_OF_ASC_NODE,ARG_OF_PERICENTER,MEAN_ANOMALY,EPHEMERIS_TYPE,CLASSIFICATION_TYPE,NORAD_CAT_ID,ELEMENT_SET_NO,REV_AT_EPOCH,BSTAR,MEAN_MOTION_DOT,MEAN_MOTION_DDOT
ONEWEB-0721,2023-068R,2026-06-16T05:34:03.271584,13.22469643,.00018936,86.6766,85.8211,77.6506,282.4839,0,U,56725,999,15781,.13431396E-3,.7E-6,0
ONEWEB-0015,2024-188A,2026-06-16T02:07:43.794912,13.11417124,.00021953,87.8886,21.3120,74.1256,286.0114,0,U,61594,999,8431,-.17988308E-2,-.625E-5,0
ONEWEB-0687,2024-188B,2026-06-16T05:50:48.004224,13.17648327,.00023367,87.9129,6.0643,87.2682,272.8717,0,U,61595,999,8577,.9061013E-4,.48E-6,0
ONEWEB-0688,2024-188C,2026-06-16T01:04:04.003392,13.17648759,.00027275,87.9129,6.1039,65.2961,294.8454,0,U,61596,999,8574,.87185638E-4,.47E-6,0
ONEWEB-0689,2024-188D,2026-06-15T23:16:50.464992,13.11418478,.00020468,87.8902,21.2932,91.6254,268.5108,0,U,61597,999,8429,.16431882E-2,.595E-5,0
ONEWEB-0690,2024-188E,2026-06-16T06:50:58.219584,13.11414354,.00012417,87.8895,21.2423,72.0742,288.0521,0,U,61598,999,8451,.11022818E-2,.403E-5,0
ONEWEB-0691,2024-188F,2026-06-15T23:24:11.231136,13.11415507,.00021344,87.8905,21.2126,79.2541,280.8827,0,U,61599,999,8432,.12000146E-2,.438E-5,0
ONEWEB-0692,2024-188G,2026-06-16T03:33:11.567520,13.11414003,.0001845,87.8885,21.2916,111.0794,249.0532,0,U,61600,999,8433,-.72998418E-3,-.246E-5,0
ONEWEB-0693,2024-188H,2026-06-16T06:49:06.978720,13.17647975,.00013154,87.9123,6.0762,65.6800,294.4469,0,U,61601,999,8576,.1681322E-4,.19E-6,0
ONEWEB-0695,2024-188J,2026-06-15T23:19:18.069888,13.11415338,.00020394,87.8885,21.3186,99.8021,260.3337,0,U,61602,999,8430,.13746586E-2,.5E-5,0
ONEWEB-0697,2024-188K,2026-06-16T03:45:23.590656,13.11415210,.00017389,87.8886,21.2719,110.5552,249.5763,0,U,61603,999,8431,-.1415997E-2,-.489E-5,0
ONEWEB-0698,2024-188L,2026-06-16T06:53:24.472320,13.11414283,.00008923,87.8883,21.2602,118.9297,241.1920,0,U,61604,999,8435,.98358652E-3,.361E-5,0
ONEWEB-0699,2024-188M,2026-06-16T03:30:58.265280,13.10376675,.00015807,87.8838,36.4736,103.9845,256.1459,0,U,61605,999,8317,.15622062E-3,.67E-6,0
ONEWEB-0700,2024-188N,2026-06-16T03:33:21.682368,13.10376710,.00019545,87.8854,36.3820,103.1526,256.9820,0,U,61606,999,8316,.68932031E-3,.253E-5,0
ONEWEB-0701,2024-188P,2026-06-16T03:57:16.788096,13.10373029,.00015838,87.8836,36.4692,109.8490,250.2808,0,U,61607,999,8317,.18670133E-2,.664E-5,0
ONEWEB-0702,2024-188Q,2026-06-16T02:29:43.259424,13.11420344,.00020414,87.8905,21.2024,115.5974,244.5365,0,U,61608,999,8434,.10793881E-3,.51E-6,0
ONEWEB-0704,2024-188R,2026-06-16T03:40:32.589408,13.10375750,.00022023,87.8841,36.4610,111.9178,248.2183,0,U,61609,999,8315,.12931813E-2,.464E-5,0
ONEWEB-0705,2024-188S,2026-06-16T03:47:42.362016,13.10379012,.00026532,87.8846,36.4654,98.0987,262.0441,0,U,61610,999,7532,.17827965E-2,.635E-5,0
ONEWEB-0706,2024-188T,2026-06-16T03:26:11.008608,13.10377253,.00020606,87.8837,36.4736,99.3079,260.8281,0,U,61611,999,8324,-.17318889E-3,-.48E-6,0
ONEWEB-0707,2024-188U,2026-06-16T03:35:45.344832,13.10376426,.0001998,87.8844,36.4661,99.5708,260.5645,0,U,61612,999,8318,.69017016E-3,.254E-5,0
ONEWEB-0708,2024-188V,2026-06-16T04:02:03.714720,13.10372014,.00023526,87.8831,36.4807,83.0144,277.1251,0,U,61613,999,8316,.19489509E-2,.693E-5,0
